{
  "type": "FeatureCollection",
  "features": [
    {
      "type": "Feature",
      "properties": {
        "norad_id": 66575,
        "name": "STARLINK-35810",
        "group": "last-30-days",
        "lat": -22.047465538266074,
        "lon": 13.802165399944048,
        "alt_km": 456.76929712248875,
        "timestamp": "2025-12-26T16:33:54.328467+00:00",
        "meta_object_name": "STARLINK-35810",
        "meta_object_id": "2025-268U",
        "meta_epoch": "2025-12-26T06:00:02.999808",
        "meta_mean_motion": 15.38930197,
        "meta_eccentricity": 0.00014564,
        "meta_inclination": 43.0007,
        "meta_ra_of_asc_node": 42.0881,
        "meta_arg_of_pericenter": 270.1639,
        "meta_mean_anomaly": 136.5433,
        "meta_ephemeris_type": 0,
        "meta_classification_type": "U",
        "meta_norad_cat_id": 66575,
        "meta_element_set_no": 999,
        "meta_rev_at_epoch": 606,
        "meta_bstar": -0.059430802,
        "meta_mean_motion_dot": -0.02074677,
        "meta_mean_motion_ddot": 0,
        "tle_line1": "1 66575U 25268U   25360.25003472 -.02074677  00000+0 -59431-1 0  9998",
        "tle_line2": "2 66575  43.0007  42.0881 0001456 270.1639 136.5433 15.38930197  6065"
      },
      "geometry": {
        "type": "Point",
        "coordinates": [
          13.802165399944048,
          -22.047465538266074
        ]
      }
    },
    {
      "type": "Feature",
      "properties": {
        "norad_id": 66576,
        "name": "STARLINK-35814",
        "group": "last-30-days",
        "lat": -12.637400846053518,
        "lon": 25.604358708448995,
        "alt_km": 453.54435749425284,
        "timestamp": "2025-12-26T16:33:54.328477+00:00",
        "meta_object_name": "STARLINK-35814",
        "meta_object_id": "2025-268V",
        "meta_epoch": "2025-12-26T06:00:02.999808",
        "meta_mean_motion": 15.39758253,
        "meta_eccentricity": 0.00014412,
        "meta_inclination": 43.0008,
        "meta_ra_of_asc_node": 42.056,
        "meta_arg_of_pericenter": 275.0591,
        "meta_mean_anomaly": 145.0114,
        "meta_ephemeris_type": 0,
        "meta_classification_type": "U",
        "meta_norad_cat_id": 66576,
        "meta_element_set_no": 999,
        "meta_rev_at_epoch": 606,
        "meta_bstar": -0.057148286,
        "meta_mean_motion_dot": -0.02053341,
        "meta_mean_motion_ddot": 0,
        "tle_line1": "1 66576U 25268V   25360.25003472 -.02053341  00000+0 -57148-1 0  9997",
        "tle_line2": "2 66576  43.0008  42.0560 0001441 275.0591 145.0114 15.39758253  6069"
      },
      "geometry": {
        "type": "Point",
        "coordinates": [
          25.604358708448995,
          -12.637400846053518
        ]
      }
    },
    {
      "type": "Feature",
      "properties": {
        "norad_id": 66577,
        "name": "STARLINK-35815",
        "group": "last-30-days",
        "lat": 2.7376534728504005,
        "lon": 42.41303476215259,
        "alt_km": 447.76666926451344,
        "timestamp": "2025-12-26T16:33:54.328486+00:00",
        "meta_object_name": "STARLINK-35815",
        "meta_object_id": "2025-268W",
        "meta_epoch": "2025-12-26T06:00:02.999808",
        "meta_mean_motion": 15.41203697,
        "meta_eccentricity": 0.00015617,
        "meta_inclination": 43.0004,
        "meta_ra_of_asc_node": 42.0069,
        "meta_arg_of_pericenter": 276.6644,
        "meta_mean_anomaly": 163.8278,
        "meta_ephemeris_type": 0,
        "meta_classification_type": "U",
        "meta_norad_cat_id": 66577,
        "meta_element_set_no": 999,
        "meta_rev_at_epoch": 601,
        "meta_bstar": -0.053938774,
        "meta_mean_motion_dot": -0.02036303,
        "meta_mean_motion_ddot": 0,
        "tle_line1": "1 66577U 25268W   25360.25003472 -.02036303  00000+0 -53939-1 0  9991",
        "tle_line2": "2 66577  43.0004  42.0069 0001561 276.6644 163.8278 15.41203697  6013"
      },
      "geometry": {
        "type": "Point",
        "coordinates": [
          42.41303476215259,
          2.7376534728504005
        ]
      }
    },
    {
      "type": "Feature",
      "properties": {
        "norad_id": 66578,
        "name": "STARLINK-35743",
        "group": "last-30-days",
        "lat": 11.622161455436226,
        "lon": 52.19115276606771,
        "alt_km": 444.3476347890746,
        "timestamp": "2025-12-26T16:33:54.328496+00:00",
        "meta_object_name": "STARLINK-35743",
        "meta_object_id": "2025-268X",
        "meta_epoch": "2025-12-26T06:00:02.999808",
        "meta_mean_motion": 15.41930742,
        "meta_eccentricity": 0.00013999,
        "meta_inclination": 42.9992,
        "meta_ra_of_asc_node": 41.9781,
        "meta_arg_of_pericenter": 271.748,
        "meta_mean_anomaly": 180.6555,
        "meta_ephemeris_type": 0,
        "meta_classification_type": "U",
        "meta_norad_cat_id": 66578,
        "meta_element_set_no": 999,
        "meta_rev_at_epoch": 584,
        "meta_bstar": -0.049167096,
        "meta_mean_motion_dot": -0.01916095,
        "meta_mean_motion_ddot": 0,
        "tle_line1": "1 66578U 25268X   25360.25003472 -.01916095  00000+0 -49167-1 0  9994",
        "tle_line2": "2 66578  42.9992  41.9781 0001399 271.7480 180.6555 15.41930742  5843"
      },
      "geometry": {
        "type": "Point",
        "coordinates": [
          52.19115276606771,
          11.622161455436226
        ]
      }
    },
    {
      "type": "Feature",
      "properties": {
        "norad_id": 66579,
        "name": "STARLINK-35868",
        "group": "last-30-days",
        "lat": 19.798631925590012,
        "lon": 62.133360383448114,
        "alt_km": 440.5096713945213,
        "timestamp": "2025-12-26T16:33:54.328505+00:00",
        "meta_object_name": "STARLINK-35868",
        "meta_object_id": "2025-268Y",
        "meta_epoch": "2025-12-26T06:00:02.999808",
        "meta_mean_motion": 15.42871634,
        "meta_eccentricity": 0.00013137,
        "meta_inclination": 43.0006,
        "meta_ra_of_asc_node": 41.9497,
        "meta_arg_of_pericenter": 287.7282,
        "meta_mean_anomaly": 175.8633,
        "meta_ephemeris_type": 0,
        "meta_classification_type": "U",
        "meta_norad_cat_id": 66579,
        "meta_element_set_no": 999,
        "meta_rev_at_epoch": 590,
        "meta_bstar": -0.050575181,
        "meta_mean_motion_dot": -0.02021776,
        "meta_mean_motion_ddot": 0,
        "tle_line1": "1 66579U 25268Y   25360.25003472 -.02021776  00000+0 -50575-1 0  9994",
        "tle_line2": "2 66579  43.0006  41.9497 0001313 287.7282 175.8633 15.42871634  5904"
      },
      "geometry": {
        "type": "Point",
        "coordinates": [
          62.133360383448114,
          19.798631925590012
        ]
      }
    },
    {
      "type": "Feature",
      "properties": {
        "norad_id": 66580,
        "name": "STARLINK-35872",
        "group": "last-30-days",
        "lat": 27.048659185698185,
        "lon": 72.60440227038262,
        "alt_km": 437.1375038940605,
        "timestamp": "2025-12-26T16:33:54.328514+00:00",
        "meta_object_name": "STARLINK-35872",
        "meta_object_id": "2025-268Z",
        "meta_epoch": "2025-12-26T06:00:02.999808",
        "meta_mean_motion": 15.43708055,
        "meta_eccentricity": 0.00012645,
        "meta_inclination": 43.0004,
        "meta_ra_of_asc_node": 41.9243,
        "meta_arg_of_pericenter": 284.5813,
        "meta_mean_anomaly": 189.7173,
        "meta_ephemeris_type": 0,
        "meta_classification_type": "U",
        "meta_norad_cat_id": 66580,
        "meta_element_set_no": 999,
        "meta_rev_at_epoch": 601,
        "meta_bstar": -0.049090796,
        "meta_mean_motion_dot": -0.02019491,
        "meta_mean_motion_ddot": 0,
        "tle_line1": "1 66580U 25268Z   25360.25003472 -.02019491  00000+0 -49091-1 0  9998",
        "tle_line2": "2 66580  43.0004  41.9243 0001264 284.5813 189.7173 15.43708055  6016"
      },
      "geometry": {
        "type": "Point",
        "coordinates": [
          72.60440227038262,
          27.048659185698185
        ]
      }
    },
    {
      "type": "Feature",
      "properties": {
        "norad_id": 66581,
        "name": "STARLINK-35744",
        "group": "last-30-days",
        "lat": 33.145512493868075,
        "lon": 83.83956382970779,
        "alt_km": 433.84726287564627,
        "timestamp": "2025-12-26T16:33:54.328523+00:00",
        "meta_object_name": "STARLINK-35744",
        "meta_object_id": "2025-268AA",
        "meta_epoch": "2025-12-26T06:00:02.999808",
        "meta_mean_motion": 15.4455502,
        "meta_eccentricity": 0.00011869,
        "meta_inclination": 43.0003,
        "meta_ra_of_asc_node": 41.8986,
        "meta_arg_of_pericenter": 285.9357,
        "meta_mean_anomaly": 198.5081,
        "meta_ephemeris_type": 0,
        "meta_classification_type": "U",
        "meta_norad_cat_id": 66581,
        "meta_element_set_no": 999,
        "meta_rev_at_epoch": 596,
        "meta_bstar": -0.048247689,
        "meta_mean_motion_dot": -0.02040663,
        "meta_mean_motion_ddot": 0,
        "tle_line1": "1 66581U 25268AA  25360.25003472 -.02040663  00000+0 -48248-1 0  9997",
        "tle_line2": "2 66581  43.0003  41.8986 0001186 285.9357 198.5081 15.44555020  5962"
      },
      "geometry": {
        "type": "Point",
        "coordinates": [
          83.83956382970779,
          33.145512493868075
        ]
      }
    }
  ]
}